GLOBALSTAR M079 [+]     
1 37188U 10054A   22363.39907584 -.00000090  00000+0  76606-4 0  9996
2 37188  52.0057   1.9343 0000384  87.1698  60.3976 12.62265119562696
GLOBALSTAR M074 [+]     
1 37189U 10054B   22363.31691066 -.00000100  00000+0  19341-4 0  9999
2 37189  52.0035   1.6466 0000196  78.9601 295.2380 12.62264991563291
GLOBALSTAR M076 [+]     
1 37190U 10054C   22363.26371721 -.00000096  00000+0  45197-4 0  9990
2 37190  52.0049   1.8961 0000511 131.5066 241.7403 12.62269953563006
GLOBALSTAR M077 [+]     
1 37191U 10054D   22363.28044650 -.00000077  00000+0  14865-3 0  9997
2 37191  52.0088 318.4446 0000442  53.4382  94.1438 12.62267304563377
GLOBALSTAR M075 [+]     
1 37192U 10054E   22363.43512513 -.00000099  00000+0  24064-4 0  9990
2 37192  51.9964  44.1295 0000649 119.0981 254.3911 12.62270316562256
GLOBALSTAR M073 [+]     
1 37193U 10054F   22363.19784715 -.00000088  00000+0  90206-4 0  9998
2 37193  52.0074 317.9872 0000437  54.9082 318.8189 12.62269394564054
GLOBALSTAR M083 [+]     
1 37739U 11033A   22363.48316810 -.00000093  00000+0  62057-4 0  9990
2 37739  51.9856 267.0802 0001079  55.7437 116.1522 12.62266365533107
GLOBALSTAR M088 [+]     
1 37740U 11033B   22363.50578503 -.00000101  00000+0  13665-4 0  9995
2 37740  51.9705 173.2590 0001426  91.2174 303.4706 12.62268374528654
GLOBALSTAR M091 [+]     
1 37741U 11033C   22363.35702122 -.00000095  00000+0  49638-4 0  9996
2 37741  51.9984 135.6551 0001273  98.6388 278.9434 12.62270002529422
GLOBALSTAR M085 [+]     
1 37742U 11033D   22363.50067785 -.00000094  00000+0  56038-4 0  9994
2 37742  51.9877  87.0533 0000869 116.0867 255.4307 12.62269850529957
GLOBALSTAR M081 [+]     
1 37743U 11033E   22363.52818789 -.00000098  00000+0  31431-4 0  9999
2 37743  51.9967  89.2036 0001082 120.4755 254.2590 12.62265603530105
GLOBALSTAR M089 [+]     
1 37744U 11033F   22363.51748187 -.00000085  00000+0  10199-3 0  9996
2 37744  51.9947  43.6318 0000541 159.3063 348.2481 12.62270479530945
GLOBALSTAR M084 [+]     
1 38040U 11080A   22363.53605531 -.00000086  00000+0  97649-4 0  9992
2 38040  52.0010 270.3887 0000600  67.7308 103.7741 12.62265960508923
GLOBALSTAR M080 [+]     
1 38041U 11080B   22363.50945385 -.00000091  00000+0  70905-4 0  9996
2 38041  52.0060 271.7591 0000603  84.0075  86.8251 12.62268957509042
GLOBALSTAR M082 [+]     
1 38042U 11080C   22363.36460943 -.00000099  00000+0  25212-4 0  9992
2 38042  52.0055 227.5530 0001420  55.8857 115.5372 12.62266167509732
GLOBALSTAR M092 [+]     
1 38043U 11080D   22363.33706774 -.00000085  00000+0  10709-3 0  9994
2 38043  52.0097 317.9660 0000212  14.1560 150.5161 12.62265521508180
GLOBALSTAR M090 [+]     
1 38044U 11080E   22363.39086395 -.00000098  00000+0  33630-4 0  9994
2 38044  51.9862 222.4424 0001243  73.4706  97.6993 12.62268396509854
GLOBALSTAR M086 [+]     
1 38045U 11080F   22363.33793623 -.00000099  00000+0  28662-4 0  9998
2 38045  51.9874 223.0834 0001990 102.9906  68.1638 12.62267861509797
GLOBALSTAR M097 [+]     
1 39072U 13005A   22362.93084659 -.00000106  00000+0 -12874-4 0  9993
2 39072  52.0031 137.9505 0001365 101.7723 258.3297 12.62281217456991
GLOBALSTAR M093 [+]     
1 39073U 13005B   22363.37952963 -.00000096  00000+0  45168-4 0  9994
2 39073  51.9800 131.3306 0001441  99.9763 260.1266 12.62267124457009
GLOBALSTAR M094 [+]     
1 39074U 13005C   22363.45879050 -.00000096  00000+0  43319-4 0  9995
2 39074  51.9975  44.5730 0000586 122.8414 237.2509 12.62266488458623
GLOBALSTAR M096 [+]     
1 39075U 13005D   22363.55119096 -.00000096  00000+0  45864-4 0  9991
2 39075  52.0081  92.1013 0001069 114.6033 245.4945 12.62268759457559
GLOBALSTAR M078 [+]     
1 39076U 13005E   22363.20782861 -.00000111  00000+0 -40213-4 0  9992
2 39076  51.9846 178.8808 0001133  46.7285 313.3676 12.62276711456133
GLOBALSTAR M095 [+]     
1 39077U 13005F   22363.23424584 -.00000106  00000+0 -11849-4 0  9998
2 39077  51.9770 176.4446 0001495  70.8085 289.2943 12.62262346455999
GLOBALSTAR FM15 [+]     
1 52888U 22064A   22363.48752132 -.00000128  00000+0  00000+0 0  9993
2 52888  51.9808 276.2776 0010153  85.2135 274.9933 13.37546952 25835
